{"type": "FeatureCollection", "features": [ {"type": "Feature", "properties": {"norad_id": 30283, "name": "FENGYUN 1C DEB", "group": "fengyun-1c-debris", "lat": -3.64217649871505, "lon": -15.884733310683249, "alt_km": 783.4711414105541, "timestamp": "2025-12-15T22:44:29.203101+00:00", "meta": {"OBJECT_NAME": "FENGYUN 1C DEB", "OBJECT_ID": "1999-025YU", "EPOCH": "2025-12-14T22:55:16.536000", "MEAN_MOTION": 14.01975584, "ECCENTRICITY": 0.01848763, "INCLINATION": 98.8669, "RA_OF_ASC_NODE": 342.5803, "ARG_OF_PERICENTER": 37.1593, "MEAN_ANOMALY": 354.0273, "EPHEMERIS_TYPE": 0, "CLASSIFICATION_TYPE": "U", "NORAD_CAT_ID": 30283, "ELEMENT_SET_NO": 999, "REV_AT_EPOCH": 96722, "BSTAR": 7.9004279e-05, "MEAN_MOTION_DOT": 9.8e-07, "MEAN_MOTION_DDOT": 0}, "tle": {"line1": "1 30283U 99025YU  25348.95505250  .00000098  00000+0  79004-4 0  9994", "line2": "2 30283  98.8669 342.5803 0184876  37.1593 354.0273 14.01975584967225"}}, "geometry": {"type": "Point", "coordinates": [-15.884733310683249, -3.64217649871505]}}, {"type": "Feature", "properties": {"norad_id": 30284, "name": "FENGYUN 1C DEB", "group": "fengyun-1c-debris", "lat": 12.060562061210094, "lon": -119.73306012094532, "alt_km": 786.8591332226761, "timestamp": "2025-12-15T22:44:29.203111+00:00", "meta": {"OBJECT_NAME": "FENGYUN 1C DEB", "OBJECT_ID": "1999-025YV", "EPOCH": "2025-12-15T03:44:02.027328", "MEAN_MOTION": 14.287817, "ECCENTRICITY": 0.00375322, "INCLINATION": 98.7209, "RA_OF_ASC_NODE": 57.5959, "ARG_OF_PERICENTER": 101.9672, "MEAN_ANOMALY": 313.9795, "EPHEMERIS_TYPE": 0, "CLASSIFICATION_TYPE": "U", "NORAD_CAT_ID": 30284, "ELEMENT_SET_NO": 999, "REV_AT_EPOCH": 97550, "BSTAR": 0.0010104215, "MEAN_MOTION_DOT": 2.521e-05, "MEAN_MOTION_DDOT": 0}, "tle": {"line1": "1 30284U 99025YV  25349.15557902  .00002521  00000+0  10104-2 0  9996", "line2": "2 30284  98.7209  57.5959 0037532 101.9672 313.9795 14.28781700975501"}}, "geometry": {"type": "Point", "coordinates": [-119.73306012094532, 12.060562061210094]}}, {"type": "Feature", "properties": {"norad_id": 30286, "name": "FENGYUN 1C DEB", "group": "fengyun-1c-debris", "lat": 50.81181600366413, "lon": -16.59844688706916, "alt_km": 830.600824660537, "timestamp": "2025-12-15T22:44:29.203122+00:00", "meta": {"OBJECT_NAME": "FENGYUN 1C DEB", "OBJECT_ID": "1999-025YX", "EPOCH": "2025-12-15T07:15:05.309856", "MEAN_MOTION": 14.12724227, "ECCENTRICITY": 0.00648062, "INCLINATION": 98.69, "RA_OF_ASC_NODE": 353.5882, "ARG_OF_PERICENTER": 125.5532, "MEAN_ANOMALY": 246.2348, "EPHEMERIS_TYPE": 0, "CLASSIFICATION_TYPE": "U", "NORAD_CAT_ID": 30286, "ELEMENT_SET_NO": 999, "REV_AT_EPOCH": 97495, "BSTAR": 0.00011002519, "MEAN_MOTION_DOT": 1.66e-06, "MEAN_MOTION_DDOT": 0}, "tle": {"line1": "1 30286U 99025YX  25349.30214479  .00000166  00000+0  11003-3 0  9997", "line2": "2 30286  98.6900 353.5882 0064806 125.5532 246.2348 14.12724227974959"}}, "geometry": {"type": "Point", "coordinates": [-16.59844688706916, 50.81181600366413]}}, {"type": "Feature", "properties": {"norad_id": 30287, "name": "FENGYUN 1C DEB", "group": "fengyun-1c-debris", "lat": 56.61778705580227, "lon": -142.82396610469632, "alt_km": 1134.9337258469686, "timestamp": "2025-12-15T22:44:29.203132+00:00", "meta": {"OBJECT_NAME": "FENGYUN 1C DEB", "OBJECT_ID": "1999-025YY", "EPOCH": "2025-12-15T01:23:29.084928", "MEAN_MOTION": 13.68596899, "ECCENTRICITY": 0.04132273, "INCLINATION": 98.6379, "RA_OF_ASC_NODE": 23.0393, "ARG_OF_PERICENTER": 6.1474, "MEAN_ANOMALY": 51.3673, "EPHEMERIS_TYPE": 0, "CLASSIFICATION_TYPE": "U", "NORAD_CAT_ID": 30287, "ELEMENT_SET_NO": 999, "REV_AT_EPOCH": 93890, "BSTAR": 0.00088702561, "MEAN_MOTION_DOT": 1.346e-05, "MEAN_MOTION_DDOT": 0}, "tle": {"line1": "1 30287U 99025YY  25349.05797552  .00001346  00000+0  88703-3 0  9990", "line2": "2 30287  98.6379  23.0393 0413227   6.1474  51.3673 13.68596899938903"}}, "geometry": {"type": "Point", "coordinates": [-142.82396610469632, 56.61778705580227]}}, {"type": "Feature", "properties": {"norad_id": 30288, "name": "FENGYUN 1C DEB", "group": "fengyun-1c-debris", "lat": 55.403277014931206, "lon": 57.97583759440877, "alt_km": 781.4165368872755, "timestamp": "2025-12-15T22:44:29.203142+00:00", "meta": {"OBJECT_NAME": "FENGYUN 1C DEB", "OBJECT_ID": "1999-025YZ", "EPOCH": "2025-12-15T04:10:47.685792", "MEAN_MOTION": 14.32608675, "ECCENTRICITY": 0.00208372, "INCLINATION": 99.3955, "RA_OF_ASC_NODE": 71.0274, "ARG_OF_PERICENTER": 314.2126, "MEAN_ANOMALY": 75.6743, "EPHEMERIS_TYPE": 0, "CLASSIFICATION_TYPE": "U", "NORAD_CAT_ID": 30288, "ELEMENT_SET_NO": 999, "REV_AT_EPOCH": 97604, "BSTAR": 0.0012155212, "MEAN_MOTION_DOT": 3.259e-05, "MEAN_MOTION_DDOT": 0}, "tle": {"line1": "1 30288U 99025YZ  25349.17416303  .00003259  00000+0  12155-2 0  9998", "line2": "2 30288  99.3955  71.0274 0020837 314.2126  75.6743 14.32608675976043"}}, "geometry": {"type": "Point", "coordinates": [57.97583759440877, 55.403277014931206]}}, {"type": "Feature", "properties": {"norad_id": 30289, "name": "FENGYUN 1C DEB", "group": "fengyun-1c-debris", "lat": 69.56297604362085, "lon": -68.55685235754089, "alt_km": 821.538584482465, "timestamp": "2025-12-15T22:44:29.203152+00:00", "meta": {"OBJECT_NAME": "FENGYUN 1C DEB", "OBJECT_ID": "1999-025ZA", "EPOCH": "2025-12-14T13:07:33.159648", "MEAN_MOTION": 14.2584512, "ECCENTRICITY": 0.00373765, "INCLINATION": 98.9266, "RA_OF_ASC_NODE": 85.0696, "ARG_OF_PERICENTER": 324.6202, "MEAN_ANOMALY": 158.0043, "EPHEMERIS_TYPE": 0, "CLASSIFICATION_TYPE": "U", "NORAD_CAT_ID": 30289, "ELEMENT_SET_NO": 999, "REV_AT_EPOCH": 97107, "BSTAR": 0.0017077684, "MEAN_MOTION_DOT": 4.048e-05, "MEAN_MOTION_DDOT": 0}, "tle": {"line1": "1 30289U 99025ZA  25348.54691157  .00004048  00000+0  17078-2 0  9997", "line2": "2 30289  98.9266  85.0696 0037376 324.6202 158.0043 14.25845120971070"}}, "geometry": {"type": "Point", "coordinates": [-68.55685235754089, 69.56297604362085]}}, {"type": "Feature", "properties": {"norad_id": 30290, "name": "FENGYUN 1C DEB", "group": "fengyun-1c-debris", "lat": 53.59238502185991, "lon": 75.84376382206855, "alt_km": 628.3454631599361, "timestamp": "2025-12-15T22:44:29.203163+00:00", "meta": {"OBJECT_NAME": "FENGYUN 1C DEB", "OBJECT_ID": "1999-025ZB", "EPOCH": "2025-12-14T05:55:57.277344", "MEAN_MOTION": 14.75050469, "ECCENTRICITY": 0.00164071, "INCLINATION": 102.6205, "RA_OF_ASC_NODE": 90.8918, "ARG_OF_PERICENTER": 43.8907, "MEAN_ANOMALY": 346.652, "EPHEMERIS_TYPE": 0, "CLASSIFICATION_TYPE": "U", "NORAD_CAT_ID": 30290, "ELEMENT_SET_NO": 999, "REV_AT_EPOCH": 97901, "BSTAR": 0.0051872561, "MEAN_MOTION_DOT": 0.00035114, "MEAN_MOTION_DDOT": 0}, "tle": {"line1": "1 30290U 99025ZB  25348.24719071  .00035114  00000+0  51873-2 0  9991", "line2": "2 30290 102.6205  90.8918 0016407  43.8907 346.6520 14.75050469979019"}}, "geometry": {"type": "Point", "coordinates": [75.84376382206855, 53.59238502185991]}}, {"type": "Feature", "properties": {"norad_id": 30291, "name": "FENGYUN 1C DEB", "group": "fengyun-1c-debris", "lat": -81.66031331454232, "lon": -61.658607131143974, "alt_km": 721.5727199510775, "timestamp": "2025-12-15T22:44:29.203173+00:00", "meta": {"OBJECT_NAME": "FENGYUN 1C DEB", "OBJECT_ID": "1999-025ZC", "EPOCH": "2025-12-15T04:01:09.501312", "MEAN_MOTION": 14.55302907, "ECCENTRICITY": 0.01115698, "INCLINATION": 97.2327, "RA_OF_ASC_NODE": 237.6336, "ARG_OF_PERICENTER": 11.5247, "MEAN_ANOMALY": 139.4132, "EPHEMERIS_TYPE": 0, "CLASSIFICATION_TYPE": "U", "NORAD_CAT_ID": 30291, "ELEMENT_SET_NO": 999, "REV_AT_EPOCH": 97743, "BSTAR": 0.0017944969, "MEAN_MOTION_DOT": 8.424e-05, "MEAN_MOTION_DDOT": 0}, "tle": {"line1": "1 30291U 99025ZC  25349.16747108  .00008424  00000+0  17945-2 0  9992", "line2": "2 30291  97.2327 237.6336 0111569  11.5247 139.4132 14.55302907977439"}}, "geometry": {"type": "Point", "coordinates": [-61.658607131143974, -81.66031331454232]}}, {"type": "Feature", "properties": {"norad_id": 30293, "name": "FENGYUN 1C DEB", "group": "fengyun-1c-debris", "lat": 77.13829307310992, "lon": 46.75246652212287, "alt_km": 667.4866220975464, "timestamp": "2025-12-15T22:44:29.203183+00:00", "meta": {"OBJECT_NAME": "FENGYUN 1C DEB", "OBJECT_ID": "1999-025ZE", "EPOCH": "2025-12-14T18:42:03.945312", "MEAN_MOTION": 14.48958771, "ECCENTRICITY": 0.00767605, "INCLINATION": 99.255, "RA_OF_ASC_NODE": 179.9, "ARG_OF_PERICENTER": 108.6567, "MEAN_ANOMALY": 19.445, "EPHEMERIS_TYPE": 0, "CLASSIFICATION_TYPE": "U", "NORAD_CAT_ID": 30293, "ELEMENT_SET_NO": 999, "REV_AT_EPOCH": 99006, "BSTAR": 0.00073810894, "MEAN_MOTION_DOT": 2.849e-05, "MEAN_MOTION_DDOT": 0}, "tle": {"line1": "1 30293U 99025ZE  25348.77921233  .00002849  00000+0  73811-3 0  9993", "line2": "2 30293  99.2550 179.9000 0076760 108.6567  19.4450 14.48958771990065"}}, "geometry": {"type": "Point", "coordinates": [46.75246652212287, 77.13829307310992]}}, {"type": "Feature", "properties": {"norad_id": 30294, "name": "FENGYUN 1C DEB", "group": "fengyun-1c-debris", "lat": -36.205258749016465, "lon": 151.91365188645244, "alt_km": 762.7773187796929, "timestamp": "2025-12-15T22:44:29.203195+00:00", "meta": {"OBJECT_NAME": "FENGYUN 1C DEB", "OBJECT_ID": "1999-025ZF", "EPOCH": "2025-12-14T22:32:33.614016", "MEAN_MOTION": 14.34957984, "ECCENTRICITY": 0.01974276, "INCLINATION": 98.3557, "RA_OF_ASC_NODE": 337.1135, "ARG_OF_PERICENTER": 303.0721, "MEAN_ANOMALY": 110.0982, "EPHEMERIS_TYPE": 0, "CLASSIFICATION_TYPE": "U", "NORAD_CAT_ID": 30294, "ELEMENT_SET_NO": 999, "REV_AT_EPOCH": 98568, "BSTAR": 0.00037202846, "MEAN_MOTION_DOT": 1.269e-05, "MEAN_MOTION_DDOT": 0}, "tle": {"line1": "1 30294U 99025ZF  25348.93927794  .00001269  00000+0  37203-3 0  9990", "line2": "2 30294  98.3557 337.1135 0197427 303.0721 110.0982 14.34957984985687"}}, "geometry": {"type": "Point", "coordinates": [151.91365188645244, -36.205258749016465]}}]}